AMC-3                   
1 24936U 97050A   26066.37961633 -.00000263  00000+0  00000+0 0  9993
2 24936   7.8967  65.2390 0003535 293.7746 230.7340  1.00272815 51418
NSS-11                  
1 26554U 00059A   26066.56502869  .00000024  00000+0  00000+0 0  9991
2 26554   1.8638  82.6324 0003187 274.8018 187.2438  1.00273135 40272
AMC-6                   
1 26580U 00067A   26066.52336347  .00000087  00000+0  00000+0 0  9990
2 26580   0.0456 329.4347 0003092  21.6887 227.4517  1.00273323 92871
AMC-11                  
1 28252U 04017A   26066.27268955 -.00000052  00000+0  00000+0 0  9991
2 28252   0.0485  79.1330 0003235 276.7834 156.1303  1.00272929 79840
AMC-15                  
1 28446U 04041A   26066.34045059 -.00000090  00000+0  00000+0 0  9991
2 28446   0.0491 302.7787 0002507  30.4814 209.2876  1.00272461 78280
NSS-10                  
1 28526U 05003A   26066.28733629 -.00000253  00000+0  00000+0 0  9990
2 28526   6.1945  71.6844 0003224 271.1103 248.1954  1.00271993 52132
ASTRA 1KR               
1 29055U 06012A   26066.29842968  .00000117  00000+0  00000+0 0  9995
2 29055   0.2109  81.8775 0003352 255.3650 314.1725  1.00270828 44672
ASTRA 1L                
1 31306U 07016A   26066.43517022 -.00000186  00000+0  00000+0 0  9995
2 31306   1.0583  82.3967 0003421 282.6718 292.2684  1.00271010 43968
ASTRA 4A                
1 32299U 07057A   26066.22432933  .00000030  00000+0  00000+0 0  9993
2 32299   0.0476 297.6138 0002425  53.3800 259.4942  1.00271325 50621
ASTRA 1M                
1 33436U 08057A   26066.29842968  .00000118  00000+0  00000+0 0  9995
2 33436   0.0408  63.4661 0000931 357.8457 230.3094  1.00270126 44717
NSS-9                   
1 33749U 09008A   26066.47753184  .00000070  00000+0  00000+0 0  9997
2 33749   0.9984  83.6751 0002206 256.8915 179.5967  1.00270529 62507
SES-7 (PROTOSTAR 2)     
1 34941U 09027A   26066.58725389 -.00000346  00000+0  00000+0 0  9998
2 34941   0.0180  85.8657 0001297 229.6168 169.4599  1.00270271 61611
NSS-12                  
1 36032U 09058A   26066.60889162  .00000070  00000+0  00000+0 0  9991
2 36032   0.0371 340.3708 0004965 352.8092 108.3182  1.00272209 59892
SES-1                   
1 36516U 10016A   26066.33926354 -.00000116  00000+0  00000+0 0  9991
2 36516   0.0468 298.0114 0002467  44.3381 203.8314  1.00272605 58016
ASTRA 3B                
1 36581U 10021A   26066.22805602  .00000135  00000+0  00000+0 0  9999
2 36581   1.2048  84.8828 0003145 282.7094 262.9383  1.00273022 57847
SES-3                   
1 37748U 11035A   26066.33982754 -.00000103  00000+0  00000+0 0  9993
2 37748   1.0631  84.2698 0003590 271.3928 188.7140  1.00272413 53577
ASTRA 1N                
1 37775U 11041A   26066.29842968  .00000117  00000+0  00000+0 0  9991
2 37775   0.0715  26.2362 0004375 352.8171 272.5727  1.00270333 43504
