[{"OBJECT_NAME":"AMC-3","OBJECT_ID":"1997-050A","EPOCH":"2026-03-07T09:06:38.850912","MEAN_MOTION":1.00272815,"ECCENTRICITY":0.00035357,"INCLINATION":7.8967,"RA_OF_ASC_NODE":65.239,"ARG_OF_PERICENTER":293.7746,"MEAN_ANOMALY":230.734,"EPHEMERIS_TYPE":0,"CLASSIFICATION_TYPE":"U","NORAD_CAT_ID":24936,"ELEMENT_SET_NO":999,"REV_AT_EPOCH":5141,"BSTAR":0,"MEAN_MOTION_DOT":-2.63e-6,"MEAN_MOTION_DDOT":0},{"OBJECT_NAME":"NSS-11","OBJECT_ID":"2000-059A","EPOCH":"2026-03-07T13:33:38.478816","MEAN_MOTION":1.00273135,"ECCENTRICITY":0.00031877,"INCLINATION":1.8638,"RA_OF_ASC_NODE":82.6324,"ARG_OF_PERICENTER":274.8018,"MEAN_ANOMALY":187.2438,"EPHEMERIS_TYPE":0,"CLASSIFICATION_TYPE":"U","NORAD_CAT_ID":26554,"ELEMENT_SET_NO":999,"REV_AT_EPOCH":4027,"BSTAR":0,"MEAN_MOTION_DOT":2.4e-7,"MEAN_MOTION_DDOT":0},{"OBJECT_NAME":"AMC-6","OBJECT_ID":"2000-067A","EPOCH":"2026-03-07T12:33:38.603808","MEAN_MOTION":1.00273323,"ECCENTRICITY":0.00030928,"INCLINATION":0.0456,"RA_OF_ASC_NODE":329.4347,"ARG_OF_PERICENTER":21.6887,"MEAN_ANOMALY":227.4517,"EPHEMERIS_TYPE":0,"CLASSIFICATION_TYPE":"U","NORAD_CAT_ID":26580,"ELEMENT_SET_NO":999,"REV_AT_EPOCH":9287,"BSTAR":0,"MEAN_MOTION_DOT":8.7e-7,"MEAN_MOTION_DDOT":0},{"OBJECT_NAME":"AMC-11","OBJECT_ID":"2004-017A","EPOCH":"2026-03-07T06:32:40.377120","MEAN_MOTION":1.00272929,"ECCENTRICITY":0.0003235,"INCLINATION":0.0485,"RA_OF_ASC_NODE":79.133,"ARG_OF_PERICENTER":276.7834,"MEAN_ANOMALY":156.1303,"EPHEMERIS_TYPE":0,"CLASSIFICATION_TYPE":"U","NORAD_CAT_ID":28252,"ELEMENT_SET_NO":999,"REV_AT_EPOCH":7984,"BSTAR":0,"MEAN_MOTION_DOT":-5.2e-7,"MEAN_MOTION_DDOT":0},{"OBJECT_NAME":"AMC-15","OBJECT_ID":"2004-041A","EPOCH":"2026-03-07T08:10:14.930976","MEAN_MOTION":1.00272461,"ECCENTRICITY":0.0002507,"INCLINATION":0.0491,"RA_OF_ASC_NODE":302.7787,"ARG_OF_PERICENTER":30.4814,"MEAN_ANOMALY":209.2876,"EPHEMERIS_TYPE":0,"CLASSIFICATION_TYPE":"U","NORAD_CAT_ID":28446,"ELEMENT_SET_NO":999,"REV_AT_EPOCH":7828,"BSTAR":0,"MEAN_MOTION_DOT":-9.0e-7,"MEAN_MOTION_DDOT":0},{"OBJECT_NAME":"NSS-10","OBJECT_ID":"2005-003A","EPOCH":"2026-03-07T06:53:45.855456","MEAN_MOTION":1.00271993,"ECCENTRICITY":0.00032247,"INCLINATION":6.1945,"RA_OF_ASC_NODE":71.6844,"ARG_OF_PERICENTER":271.1103,"MEAN_ANOMALY":248.1954,"EPHEMERIS_TYPE":0,"CLASSIFICATION_TYPE":"U","NORAD_CAT_ID":28526,"ELEMENT_SET_NO":999,"REV_AT_EPOCH":5213,"BSTAR":0,"MEAN_MOTION_DOT":-2.53e-6,"MEAN_MOTION_DDOT":0},{"OBJECT_NAME":"ASTRA 1KR","OBJECT_ID":"2006-012A","EPOCH":"2026-03-07T07:09:44.324352","MEAN_MOTION":1.00270828,"ECCENTRICITY":0.00033525,"INCLINATION":0.2109,"RA_OF_ASC_NODE":81.8775,"ARG_OF_PERICENTER":255.365,"MEAN_ANOMALY":314.1725,"EPHEMERIS_TYPE":0,"CLASSIFICATION_TYPE":"U","NORAD_CAT_ID":29055,"ELEMENT_SET_NO":999,"REV_AT_EPOCH":4467,"BSTAR":0,"MEAN_MOTION_DOT":1.17e-6,"MEAN_MOTION_DDOT":0},{"OBJECT_NAME":"ASTRA 1L","OBJECT_ID":"2007-016A","EPOCH":"2026-03-07T10:26:38.707008","MEAN_MOTION":1.0027101,"ECCENTRICITY":0.00034212,"INCLINATION":1.0583,"RA_OF_ASC_NODE":82.3967,"ARG_OF_PERICENTER":282.6718,"MEAN_ANOMALY":292.2684,"EPHEMERIS_TYPE":0,"CLASSIFICATION_TYPE":"U","NORAD_CAT_ID":31306,"ELEMENT_SET_NO":999,"REV_AT_EPOCH":4396,"BSTAR":0,"MEAN_MOTION_DOT":-1.86e-6,"MEAN_MOTION_DDOT":0},{"OBJECT_NAME":"ASTRA 4A","OBJECT_ID":"2007-057A","EPOCH":"2026-03-07T05:23:02.054112","MEAN_MOTION":1.00271325,"ECCENTRICITY":0.0002425,"INCLINATION":0.0476,"RA_OF_ASC_NODE":297.6138,"ARG_OF_PERICENTER":53.38,"MEAN_ANOMALY":259.4942,"EPHEMERIS_TYPE":0,"CLASSIFICATION_TYPE":"U","NORAD_CAT_ID":32299,"ELEMENT_SET_NO":999,"REV_AT_EPOCH":5062,"BSTAR":0,"MEAN_MOTION_DOT":3.0e-7,"MEAN_MOTION_DDOT":0},{"OBJECT_NAME":"ASTRA 1M","OBJECT_ID":"2008-057A","EPOCH":"2026-03-07T07:09:44.324352","MEAN_MOTION":1.00270126,"ECCENTRICITY":9.312e-5,"INCLINATION":0.0408,"RA_OF_ASC_NODE":63.4661,"ARG_OF_PERICENTER":357.8457,"MEAN_ANOMALY":230.3094,"EPHEMERIS_TYPE":0,"CLASSIFICATION_TYPE":"U","NORAD_CAT_ID":33436,"ELEMENT_SET_NO":999,"REV_AT_EPOCH":4471,"BSTAR":0,"MEAN_MOTION_DOT":1.18e-6,"MEAN_MOTION_DDOT":0},{"OBJECT_NAME":"NSS-9","OBJECT_ID":"2009-008A","EPOCH":"2026-03-07T11:27:38.750976","MEAN_MOTION":1.00270529,"ECCENTRICITY":0.00022069,"INCLINATION":0.9984,"RA_OF_ASC_NODE":83.6751,"ARG_OF_PERICENTER":256.8915,"MEAN_ANOMALY":179.5967,"EPHEMERIS_TYPE":0,"CLASSIFICATION_TYPE":"U","NORAD_CAT_ID":33749,"ELEMENT_SET_NO":999,"REV_AT_EPOCH":6250,"BSTAR":0,"MEAN_MOTION_DOT":7.0e-7,"MEAN_MOTION_DDOT":0},{"OBJECT_NAME":"SES-7 (PROTOSTAR 2)","OBJECT_ID":"2009-027A","EPOCH":"2026-03-07T14:05:38.736096","MEAN_MOTION":1.00270271,"ECCENTRICITY":0.00012974,"INCLINATION":0.018,"RA_OF_ASC_NODE":85.8657,"ARG_OF_PERICENTER":229.6168,"MEAN_ANOMALY":169.4599,"EPHEMERIS_TYPE":0,"CLASSIFICATION_TYPE":"U","NORAD_CAT_ID":34941,"ELEMENT_SET_NO":999,"REV_AT_EPOCH":6161,"BSTAR":0,"MEAN_MOTION_DOT":-3.46e-6,"MEAN_MOTION_DDOT":0},{"OBJECT_NAME":"NSS-12","OBJECT_ID":"2009-058A","EPOCH":"2026-03-07T14:36:48.235968","MEAN_MOTION":1.00272209,"ECCENTRICITY":0.00049653,"INCLINATION":0.0371,"RA_OF_ASC_NODE":340.3708,"ARG_OF_PERICENTER":352.8092,"MEAN_ANOMALY":108.3182,"EPHEMERIS_TYPE":0,"CLASSIFICATION_TYPE":"U","NORAD_CAT_ID":36032,"ELEMENT_SET_NO":999,"REV_AT_EPOCH":5989,"BSTAR":0,"MEAN_MOTION_DOT":7.0e-7,"MEAN_MOTION_DDOT":0},{"OBJECT_NAME":"SES-1","OBJECT_ID":"2010-016A","EPOCH":"2026-03-07T08:08:32.369856","MEAN_MOTION":1.00272605,"ECCENTRICITY":0.0002467,"INCLINATION":0.0468,"RA_OF_ASC_NODE":298.0114,"ARG_OF_PERICENTER":44.3381,"MEAN_ANOMALY":203.8314,"EPHEMERIS_TYPE":0,"CLASSIFICATION_TYPE":"U","NORAD_CAT_ID":36516,"ELEMENT_SET_NO":999,"REV_AT_EPOCH":5801,"BSTAR":0,"MEAN_MOTION_DOT":-1.16e-6,"MEAN_MOTION_DDOT":0},{"OBJECT_NAME":"ASTRA 3B","OBJECT_ID":"2010-021A","EPOCH":"2026-03-07T05:28:24.040128","MEAN_MOTION":1.00273022,"ECCENTRICITY":0.0003145,"INCLINATION":1.2048,"RA_OF_ASC_NODE":84.8828,"ARG_OF_PERICENTER":282.7094,"MEAN_ANOMALY":262.9383,"EPHEMERIS_TYPE":0,"CLASSIFICATION_TYPE":"U","NORAD_CAT_ID":36581,"ELEMENT_SET_NO":999,"REV_AT_EPOCH":5784,"BSTAR":0,"MEAN_MOTION_DOT":1.35e-6,"MEAN_MOTION_DDOT":0},{"OBJECT_NAME":"SES-3","OBJECT_ID":"2011-035A","EPOCH":"2026-03-07T08:09:21.099456","MEAN_MOTION":1.00272413,"ECCENTRICITY":0.000359,"INCLINATION":1.0631,"RA_OF_ASC_NODE":84.2698,"ARG_OF_PERICENTER":271.3928,"MEAN_ANOMALY":188.714,"EPHEMERIS_TYPE":0,"CLASSIFICATION_TYPE":"U","NORAD_CAT_ID":37748,"ELEMENT_SET_NO":999,"REV_AT_EPOCH":5357,"BSTAR":0,"MEAN_MOTION_DOT":-1.03e-6,"MEAN_MOTION_DDOT":0},{"OBJECT_NAME":"ASTRA 1N","OBJECT_ID":"2011-041A","EPOCH":"2026-03-07T07:09:44.324352","MEAN_MOTION":1.00270333,"ECCENTRICITY":0.00043751,"INCLINATION":0.0715,"RA_OF_ASC_NODE":26.2362,"ARG_OF_PERICENTER":352.8171,"MEAN_ANOMALY":272.5727,"EPHEMERIS_TYPE":0,"CLASSIFICATION_TYPE":"U","NORAD_CAT_ID":37775,"ELEMENT_SET_NO":999,"REV_AT_EPOCH":4350,"BSTAR":0,"MEAN_MOTION_DOT":1.17e-6,"MEAN_MOTION_DDOT":0}]
